start=new Date('2021-10-14T00:00:00.000Z').valueOf();
sats=[{"ARG_OF_PERICENTER":"48.7607","SEMIMAJOR_AXIS":"6775.395","CENTER_NAME":"EARTH","MEAN_ELEMENT_THEORY":"SGP4","ELEMENT_SET_NO":"999","OBJECT_ID":"2021-044BC","DECAY_DATE":null,"RA_OF_ASC_NODE":"88.6998","OBJECT_TYPE":"PAYLOAD","MEAN_MOTION_DDOT":"0.0000000000000","APOAPSIS":"398.140","REF_FRAME":"TEME","EPOCH":"2021-10-13T22:00:01.999584","BSTAR":"-0.01440800000000","MEAN_MOTION_DOT":"-0.00947323","MEAN_MOTION":"15.56685392","TLE_LINE1":"1 48688U 21044BC  21286.91668981 -.00947323  00000-0 -14408-1 0  9990","MEAN_ANOMALY":"293.7269","LAUNCH_DATE":"2021-05-26","EPHEMERIS_TYPE":"0","INCLINATION":"53.0409","SITE":"AFETR","TLE_LINE2":"2 48688  53.0409  88.6998 0001299  48.7607 293.7269 15.56685392 22921","GP_ID":"187073257","CLASSIFICATION_TYPE":"U","RCS_SIZE":"LARGE","FILE":"3160853","COUNTRY_CODE":"US","NORAD_CAT_ID":"48688","OBJECT_NAME":"STARLINK-2742","TIME_SYSTEM":"UTC","REV_AT_EPOCH":"2292","PERIAPSIS":"396.380","ECCENTRICITY":"0.00012990","PERIOD":"92.504"},{"MEAN_MOTION_DOT":"-0.00935395","BSTAR":"-0.02558600000000","EPOCH":"2021-10-13T22:00:01.999584","REF_FRAME":"TEME","APOAPSIS":"448.415","MEAN_MOTION_DDOT":"0.0000000000000","RA_OF_ASC_NODE":"90.2289","OBJECT_TYPE":"PAYLOAD","LAUNCH_DATE":"2021-05-26","MEAN_ANOMALY":"207.6170","TLE_LINE1":"1 48689U 21044BD  21286.91668981 -.00935395  00000-0 -25586-1 0  9996","MEAN_MOTION":"15.39538074","ELEMENT_SET_NO":"999","MEAN_ELEMENT_THEORY":"SGP4","SEMIMAJOR_AXIS":"6825.611","ARG_OF_PERICENTER":"63.2635","CENTER_NAME":"EARTH","DECAY_DATE":null,"OBJECT_ID":"2021-044BD","NORAD_CAT_ID":"48689","COUNTRY_CODE":"US","FILE":"3161149","RCS_SIZE":"LARGE","CLASSIFICATION_TYPE":"U","PERIOD":"93.535","PERIAPSIS":"446.538","ECCENTRICITY":"0.00013750","REV_AT_EPOCH":"374","TIME_SYSTEM":"UTC","OBJECT_NAME":"STARLINK-2617","INCLINATION":"53.0426","EPHEMERIS_TYPE":"0","GP_ID":"187103102","TLE_LINE2":"2 48689  53.0426  90.2289 0001375  63.2635 207.6170 15.39538074  3740","SITE":"AFETR"},{"ELEMENT_SET_NO":"999","MEAN_ELEMENT_THEORY":"SGP4","ARG_OF_PERICENTER":"56.4827","SEMIMAJOR_AXIS":"6925.371","CENTER_NAME":"EARTH","DECAY_DATE":null,"OBJECT_ID":"2021-044BE","MEAN_MOTION_DOT":"0.00020756","BSTAR":"0.00140850000000","EPOCH":"2021-10-13T22:00:01.999584","REF_FRAME":"TEME","APOAPSIS":"548.309","MEAN_MOTION_DDOT":"0.0000000000000","OBJECT_TYPE":"PAYLOAD","RA_OF_ASC_NODE":"99.1855","LAUNCH_DATE":"2021-05-26","MEAN_ANOMALY":"321.3266","TLE_LINE1":"1 48690U 21044BE  21286.91668981  .00020756  00000-0  14085-2 0  9995","MEAN_MOTION":"15.06392746","INCLINATION":"53.0525","EPHEMERIS_TYPE":"0","GP_ID":"187102691","TLE_LINE2":"2 48690  53.0525  99.1855 0001550  56.4827 321.3266 15.06392746  3637","SITE":"AFETR","NORAD_CAT_ID":"48690","COUNTRY_CODE":"US","FILE":"3161149","RCS_SIZE":"LARGE","CLASSIFICATION_TYPE":"U","PERIOD":"95.593","PERIAPSIS":"546.162","ECCENTRICITY":"0.00015500","REV_AT_EPOCH":"363","TIME_SYSTEM":"UTC","OBJECT_NAME":"STARLINK-2740"},{"MEAN_ANOMALY":"325.3826","TLE_LINE1":"1 48691U 21044BF  21286.91668981 -.00918900  00000-0 -52467-1 0  9990","LAUNCH_DATE":"2021-05-26","MEAN_MOTION":"15.15042837","EPOCH":"2021-10-13T22:00:01.999584","BSTAR":"-0.05246700000000","MEAN_MOTION_DOT":"-0.00918900","OBJECT_TYPE":"PAYLOAD","RA_OF_ASC_NODE":"94.3090","MEAN_MOTION_DDOT":"0.0000000000000","APOAPSIS":"521.690","REF_FRAME":"TEME","OBJECT_ID":"2021-044BF","DECAY_DATE":null,"ELEMENT_SET_NO":"999","SEMIMAJOR_AXIS":"6898.986","ARG_OF_PERICENTER":"96.7087","CENTER_NAME":"EARTH","MEAN_ELEMENT_THEORY":"SGP4","ECCENTRICITY":"0.00012170","PERIAPSIS":"520.011","PERIOD":"95.047","TIME_SYSTEM":"UTC","OBJECT_NAME":"STARLINK-2750","REV_AT_EPOCH":"363","FILE":"3161149","COUNTRY_CODE":"US","NORAD_CAT_ID":"48691","CLASSIFICATION_TYPE":"U","RCS_SIZE":"LARGE","GP_ID":"187102906","SITE":"AFETR","TLE_LINE2":"2 48691  53.0405  94.3090 0001217  96.7087 325.3826 15.15042837  3637","EPHEMERIS_TYPE":"0","INCLINATION":"53.0405"},{"APOAPSIS":"517.464","REF_FRAME":"TEME","OBJECT_TYPE":"PAYLOAD","RA_OF_ASC_NODE":"94.3579","MEAN_MOTION_DDOT":"0.0000000000000","BSTAR":"-0.05024000000000","MEAN_MOTION_DOT":"-0.00917747","EPOCH":"2021-10-13T22:00:01.999584","MEAN_MOTION":"15.16510438","LAUNCH_DATE":"2021-05-26","TLE_LINE1":"1 48692U 21044BG  21286.91668981 -.00917747  00000-0 -50240-1 0  9996","MEAN_ANOMALY":"153.5679","ARG_OF_PERICENTER":"63.4964","SEMIMAJOR_AXIS":"6894.534","CENTER_NAME":"EARTH","MEAN_ELEMENT_THEORY":"SGP4","ELEMENT_SET_NO":"999","DECAY_DATE":null,"OBJECT_ID":"2021-044BG","CLASSIFICATION_TYPE":"U","RCS_SIZE":"LARGE","NORAD_CAT_ID":"48692","FILE":"3161149","COUNTRY_CODE":"US","REV_AT_EPOCH":"363","OBJECT_NAME":"STARLINK-2752","TIME_SYSTEM":"UTC","ECCENTRICITY":"0.00015450","PERIAPSIS":"515.334","PERIOD":"94.955","INCLINATION":"53.0476","EPHEMERIS_TYPE":"0","TLE_LINE2":"2 48692  53.0476  94.3579 0001545  63.4964 153.5679 15.16510438  3632","SITE":"AFETR","GP_ID":"187102799"},{"OBJECT_TYPE":"PAYLOAD","RA_OF_ASC_NODE":"99.1779","MEAN_MOTION_DDOT":"0.0000000000000","APOAPSIS":"548.366","REF_FRAME":"TEME","EPOCH":"2021-10-13T22:00:01.999584","BSTAR":"0.00321720000000","MEAN_MOTION_DOT":"0.00047926","MEAN_MOTION":"15.06369605","MEAN_ANOMALY":"125.8987","TLE_LINE1":"1 48693U 21044BH  21286.91668981  .00047926  00000-0  32172-2 0  9993","LAUNCH_DATE":"2021-05-26","ARG_OF_PERICENTER":"77.0283","SEMIMAJOR_AXIS":"6925.442","CENTER_NAME":"EARTH","MEAN_ELEMENT_THEORY":"SGP4","ELEMENT_SET_NO":"999","OBJECT_ID":"2021-044BH","DECAY_DATE":null,"CLASSIFICATION_TYPE":"U","RCS_SIZE":"LARGE","FILE":"3161149","COUNTRY_CODE":"US","NORAD_CAT_ID":"48693","TIME_SYSTEM":"UTC","OBJECT_NAME":"STARLINK-2618","REV_AT_EPOCH":"364","ECCENTRICITY":"0.00015290","PERIAPSIS":"546.248","PERIOD":"95.594","EPHEMERIS_TYPE":"0","INCLINATION":"53.0525","SITE":"AFETR","TLE_LINE2":"2 48693  53.0525  99.1779 0001529  77.0283 125.8987 15.06369605  3642","GP_ID":"187103012"},{"MEAN_MOTION_DDOT":"0.0000000000000","RA_OF_ASC_NODE":"104.1938","OBJECT_TYPE":"PAYLOAD","REF_FRAME":"TEME","APOAPSIS":"548.408","EPOCH":"2021-10-13T22:00:01.999584","MEAN_MOTION_DOT":"0.00040265","BSTAR":"0.00270820000000","MEAN_MOTION":"15.06378187","TLE_LINE1":"1 48694U 21044BJ  21286.91668981  .00040265  00000-0  27082-2 0  9997","MEAN_ANOMALY":"289.6370","LAUNCH_DATE":"2021-05-26","MEAN_ELEMENT_THEORY":"SGP4","CENTER_NAME":"EARTH","SEMIMAJOR_AXIS":"6925.415","ARG_OF_PERICENTER":"80.6774","ELEMENT_SET_NO":"999","OBJECT_ID":"2021-044BJ","DECAY_DATE":null,"RCS_SIZE":"LARGE","CLASSIFICATION_TYPE":"U","COUNTRY_CODE":"US","FILE":"3161149","NORAD_CAT_ID":"48694","TIME_SYSTEM":"UTC","OBJECT_NAME":"STARLINK-2748","REV_AT_EPOCH":"358","PERIOD":"95.594","ECCENTRICITY":"0.00016280","PERIAPSIS":"546.153","EPHEMERIS_TYPE":"0","INCLINATION":"53.0521","SITE":"AFETR","TLE_LINE2":"2 48694  53.0521 104.1938 0001628  80.6774 289.6370 15.06378187  3581","GP_ID":"187102355"},{"DECAY_DATE":null,"OBJECT_ID":"2021-044BK","ELEMENT_SET_NO":"999","CENTER_NAME":"EARTH","SEMIMAJOR_AXIS":"6925.421","ARG_OF_PERICENTER":"72.9657","MEAN_ELEMENT_THEORY":"SGP4","LAUNCH_DATE":"2021-05-26","MEAN_ANOMALY":"202.4728","TLE_LINE1":"1 48695U 21044BK  21286.91668981  .00038333  00000-0  25800-2 0  9997","MEAN_MOTION":"15.06376505","BSTAR":"0.00258000000000","MEAN_MOTION_DOT":"0.00038333","EPOCH":"2021-10-13T22:00:01.999584","APOAPSIS":"548.348","REF_FRAME":"TEME","OBJECT_TYPE":"PAYLOAD","RA_OF_ASC_NODE":"104.1799","MEAN_MOTION_DDOT":"0.0000000000000","GP_ID":"187102570","TLE_LINE2":"2 48695  53.0540 104.1799 0001534  72.9657 202.4728 15.06376505  3603","SITE":"AFETR","INCLINATION":"53.0540","EPHEMERIS_TYPE":"0","ECCENTRICITY":"0.00015340","PERIAPSIS":"546.223","PERIOD":"95.594","REV_AT_EPOCH":"360","OBJECT_NAME":"STARLINK-2616","TIME_SYSTEM":"UTC","NORAD_CAT_ID":"48695","FILE":"3161149","COUNTRY_CODE":"US","CLASSIFICATION_TYPE":"U","RCS_SIZE":"LARGE"},{"DECAY_DATE":null,"OBJECT_ID":"2021-044BL","ARG_OF_PERICENTER":"75.3265","SEMIMAJOR_AXIS":"6925.352","CENTER_NAME":"EARTH","MEAN_ELEMENT_THEORY":"SGP4","ELEMENT_SET_NO":"999","MEAN_MOTION":"15.06398836","LAUNCH_DATE":"2021-05-26","MEAN_ANOMALY":"284.7933","TLE_LINE1":"1 48696U 21044BL  21286.72360825  .00001542  00000-0  12240-3 0  9990","APOAPSIS":"548.524","REF_FRAME":"TEME","OBJECT_TYPE":"PAYLOAD","RA_OF_ASC_NODE":"109.9945","MEAN_MOTION_DDOT":"0.0000000000000","BSTAR":"0.00012240000000","MEAN_MOTION_DOT":"0.00001542","EPOCH":"2021-10-13T17:21:59.752800","TLE_LINE2":"2 48696  53.0660 109.9945 0001887  75.3265 284.7933 15.06398836 21776","SITE":"AFETR","GP_ID":"187102463","INCLINATION":"53.0660","EPHEMERIS_TYPE":"0","REV_AT_EPOCH":"2177","TIME_SYSTEM":"UTC","OBJECT_NAME":"STARLINK-2753","ECCENTRICITY":"0.00018870","PERIAPSIS":"545.910","PERIOD":"95.592","CLASSIFICATION_TYPE":"U","RCS_SIZE":"LARGE","NORAD_CAT_ID":"48696","FILE":"3161149","COUNTRY_CODE":"US"},{"DECAY_DATE":null,"OBJECT_ID":"2021-044BM","ELEMENT_SET_NO":"999","MEAN_ELEMENT_THEORY":"SGP4","CENTER_NAME":"EARTH","SEMIMAJOR_AXIS":"6925.345","ARG_OF_PERICENTER":"81.3974","LAUNCH_DATE":"2021-05-26","MEAN_ANOMALY":"278.7293","TLE_LINE1":"1 48697U 21044BM  21286.69040437  .00000791  00000-0  72041-4 0  9992","MEAN_MOTION":"15.06401272","MEAN_MOTION_DOT":"0.00000791","BSTAR":"0.00007204100000","EPOCH":"2021-10-13T16:34:10.937568","REF_FRAME":"TEME","APOAPSIS":"548.913","MEAN_MOTION_DDOT":"0.0000000000000","OBJECT_TYPE":"PAYLOAD","RA_OF_ASC_NODE":"110.1963","GP_ID":"187103103","TLE_LINE2":"2 48697  53.0553 110.1963 0002460  81.3974 278.7293 15.06401272 21764","SITE":"AFETR","INCLINATION":"53.0553","EPHEMERIS_TYPE":"0","PERIOD":"95.592","ECCENTRICITY":"0.00024600","PERIAPSIS":"545.506","REV_AT_EPOCH":"2176","TIME_SYSTEM":"UTC","OBJECT_NAME":"STARLINK-2715","NORAD_CAT_ID":"48697","COUNTRY_CODE":"US","FILE":"3161149","RCS_SIZE":"LARGE","CLASSIFICATION_TYPE":"U"}];
